HIMAWARI-8              
1 40267U 14060A   24014.97415720 -.00000271  00000+0  00000+0 0  9995
2 40267   0.0094 170.0033 0000900 116.5569 318.7107  1.00271604 33992
